[{"OBJECT_NAME":"STARLINK-1262","OBJECT_ID":"2020-019G","EPOCH":"2026-03-10T00:00:02.999808","MEAN_MOTION":15.29253849,"ECCENTRICITY":9.787e-5,"INCLINATION":53.1531,"RA_OF_ASC_NODE":163.6731,"ARG_OF_PERICENTER":66.1487,"MEAN_ANOMALY":301.9204,"EPHEMERIS_TYPE":0,"CLASSIFICATION_TYPE":"U","NORAD_CAT_ID":45366,"ELEMENT_SET_NO":999,"REV_AT_EPOCH":569,"BSTAR":0.0025443873,"MEAN_MOTION_DOT":0.00073562,"MEAN_MOTION_DDOT":0},{"OBJECT_NAME":"GLOBAL-34","OBJECT_ID":"2026-043A","EPOCH":"2026-03-09T11:23:30.999840","MEAN_MOTION":15.31488019,"ECCENTRICITY":0.00068849,"INCLINATION":42.0215,"RA_OF_ASC_NODE":76.7399,"ARG_OF_PERICENTER":289.2632,"MEAN_ANOMALY":70.746,"EPHEMERIS_TYPE":0,"CLASSIFICATION_TYPE":"U","NORAD_CAT_ID":68098,"ELEMENT_SET_NO":999,"REV_AT_EPOCH":53,"BSTAR":0.00045822046,"MEAN_MOTION_DOT":0.00014018,"MEAN_MOTION_DDOT":0}]
